{
    "links": {
        "self": "http://www.neowsapp.com/rest/v1/neo/3445599?api_key=iIulBulltgU6a56xZRHN4H3l9WmuAYTsLGpBGhQ2"
    },
    "id": "3445599",
    "neo_reference_id": "3445599",
    "name": "(2009 CP)",
    "designation": "2009 CP",
    "nasa_jpl_url": "http://ssd.jpl.nasa.gov/sbdb.cgi?sstr=3445599",
    "absolute_magnitude_h": 26.8,
    "estimated_diameter": {
        "kilometers": {
            "estimated_diameter_min": 0.0116025908,
            "estimated_diameter_max": 0.0259441818
        },
        "meters": {
            "estimated_diameter_min": 11.6025908209,
            "estimated_diameter_max": 25.9441817907
        },
        "miles": {
            "estimated_diameter_min": 0.0072095135,
            "estimated_diameter_max": 0.0161209622
        },
        "feet": {
            "estimated_diameter_min": 38.066244069,
            "estimated_diameter_max": 85.1187093863
        }
    },
    "is_potentially_hazardous_asteroid": false,
    "close_approach_data": [
        {
            "close_approach_date": "2009-02-08",
            "close_approach_date_full": "2009-Feb-08 10:17",
            "epoch_date_close_approach": 1234088220000,
            "relative_velocity": {
                "kilometers_per_second": "9.6432687317",
                "kilometers_per_hour": "34715.7674340114",
                "miles_per_hour": "21571.0278258722"
            },
            "miss_distance": {
                "astronomical": "0.0198137359",
                "lunar": "7.7075432651",
                "kilometers": "2964092.687382533",
                "miles": "1841801.7904556354"
            },
            "orbiting_body": "Earth"
        }
    ],
    "orbital_data": {
        "orbit_id": "9",
        "orbit_determination_date": "2017-04-06 09:01:27",
        "first_observation_date": "2009-02-02",
        "last_observation_date": "2009-02-09",
        "data_arc_in_days": 7,
        "observations_used": 37,
        "orbit_uncertainty": "8",
        "minimum_orbit_intersection": ".0186686",
        "jupiter_tisserand_invariant": "3.452",
        "epoch_osculation": "2454865.5",
        "eccentricity": ".553068482979383",
        "semi_major_axis": "2.183206851158663",
        "inclination": "8.00309801479518",
        "ascending_node_longitude": "135.5106822567995",
        "orbital_period": "1178.258971274131",
        "perihelion_distance": ".9757439499581455",
        "perihelion_argument": "26.68433217480069",
        "aphelion_distance": "3.39066975235918",
        "perihelion_time": "2454888.648016653222",
        "mean_anomaly": "352.9274580560599",
        "mean_motion": ".3055355475975776",
        "equinox": "J2000",
        "orbit_class": {
            "orbit_class_type": "APO",
            "orbit_class_description": "Near-Earth asteroid orbits which cross the Earth’s orbit similar to that of 1862 Apollo",
            "orbit_class_range": "a (semi-major axis) > 1.0 AU; q (perihelion) < 1.017 AU"
        }
    },
    "is_sentry_object": false
}